{
  "type": "FeatureCollection",
  "features": [
    {
      "type": "Feature",
      "properties": {
        "norad_id": 44333,
        "name": "AT&T T-16",
        "group": "intelsat",
        "lat": 0.00884033520852105,
        "lon": -165.48250918718355,
        "alt_km": 35785.2588389832,
        "timestamp": "2025-12-18T13:51:49.328782+00:00",
        "meta_object_name": "AT&T T-16",
        "meta_object_id": "2019-034A",
        "meta_epoch": "2025-12-17T23:07:09.285888",
        "meta_mean_motion": 1.00269567,
        "meta_eccentricity": 7.786e-05,
        "meta_inclination": 0.0259,
        "meta_ra_of_asc_node": 66.0792,
        "meta_arg_of_pericenter": 65.0854,
        "meta_mean_anomaly": 201.5889,
        "meta_ephemeris_type": 0,
        "meta_classification_type": "U",
        "meta_norad_cat_id": 44333,
        "meta_element_set_no": 999,
        "meta_rev_at_epoch": 2381,
        "meta_bstar": 0,
        "meta_mean_motion_dot": -9e-07,
        "meta_mean_motion_ddot": 0,
        "tle_line1": "1 44333U 19034A   25351.96330192 -.00000090  00000+0  00000+0 0  9991",
        "tle_line2": "2 44333   0.0259  66.0792 0000778  65.0854 201.5889  1.00269567 23818"
      },
      "geometry": {
        "type": "Point",
        "coordinates": [
          -165.48250918718355,
          0.00884033520852105
        ]
      }
    },
    {
      "type": "Feature",
      "properties": {
        "norad_id": 44476,
        "name": "INTELSAT 39 (IS-39)",
        "group": "intelsat",
        "lat": 0.0016451122620013922,
        "lon": -2.6885139397817057,
        "alt_km": 35790.10477343297,
        "timestamp": "2025-12-18T13:51:49.328794+00:00",
        "meta_object_name": "INTELSAT 39 (IS-39)",
        "meta_object_id": "2019-049B",
        "meta_epoch": "2025-12-18T01:36:17.498880",
        "meta_mean_motion": 1.00271075,
        "meta_eccentricity": 0.00012823,
        "meta_inclination": 0.0013,
        "meta_ra_of_asc_node": 1.1489,
        "meta_arg_of_pericenter": 132.0175,
        "meta_mean_anomaly": 39.782,
        "meta_ephemeris_type": 0,
        "meta_classification_type": "U",
        "meta_norad_cat_id": 44476,
        "meta_element_set_no": 999,
        "meta_rev_at_epoch": 2331,
        "meta_bstar": 0,
        "meta_mean_motion_dot": 5.9e-07,
        "meta_mean_motion_ddot": 0,
        "tle_line1": "1 44476U 19049B   25352.06686920  .00000059  00000+0  00000+0 0  9994",
        "tle_line2": "2 44476   0.0013   1.1489 0001282 132.0175  39.7820  1.00271075 23317"
      },
      "geometry": {
        "type": "Point",
        "coordinates": [
          -2.6885139397817057,
          0.0016451122620013922
        ]
      }
    },
    {
      "type": "Feature",
      "properties": {
        "norad_id": 46114,
        "name": "GALAXY 30 (G-30)",
        "group": "intelsat",
        "lat": -0.0014265874925473636,
        "lon": 170.36754760148224,
        "alt_km": 35787.05283802873,
        "timestamp": "2025-12-18T13:51:49.328806+00:00",
        "meta_object_name": "GALAXY 30 (G-30)",
        "meta_object_id": "2020-056C",
        "meta_epoch": "2025-12-18T05:46:06.470688",
        "meta_mean_motion": 1.00272773,
        "meta_eccentricity": 0.00020182,
        "meta_inclination": 0.0022,
        "meta_ra_of_asc_node": 348.5293,
        "meta_arg_of_pericenter": 280.4289,
        "meta_mean_anomaly": 139.6817,
        "meta_ephemeris_type": 0,
        "meta_classification_type": "U",
        "meta_norad_cat_id": 46114,
        "meta_element_set_no": 999,
        "meta_rev_at_epoch": 1947,
        "meta_bstar": 0,
        "meta_mean_motion_dot": 6.2e-07,
        "meta_mean_motion_ddot": 0,
        "tle_line1": "1 46114U 20056C   25352.24035267  .00000062  00000+0  00000+0 0  9991",
        "tle_line2": "2 46114   0.0022 348.5293 0002018 280.4289 139.6817  1.00272773 19475"
      },
      "geometry": {
        "type": "Point",
        "coordinates": [
          170.36754760148224,
          -0.0014265874925473636
        ]
      }
    },
    {
      "type": "Feature",
      "properties": {
        "norad_id": 54026,
        "name": "GALAXY 33 (G-33)",
        "group": "intelsat",
        "lat": 0.013573240324461716,
        "lon": 162.37129628021955,
        "alt_km": 35787.984827590975,
        "timestamp": "2025-12-18T13:51:49.328817+00:00",
        "meta_object_name": "GALAXY 33 (G-33)",
        "meta_object_id": "2022-128A",
        "meta_epoch": "2025-12-18T07:43:42.079584",
        "meta_mean_motion": 1.00270561,
        "meta_eccentricity": 0.00015655,
        "meta_inclination": 0.0131,
        "meta_ra_of_asc_node": 16.7549,
        "meta_arg_of_pericenter": 249.4487,
        "meta_mean_anomaly": 163.9157,
        "meta_ephemeris_type": 0,
        "meta_classification_type": "U",
        "meta_norad_cat_id": 54026,
        "meta_element_set_no": 999,
        "meta_rev_at_epoch": 1192,
        "meta_bstar": 0,
        "meta_mean_motion_dot": 1.04e-06,
        "meta_mean_motion_ddot": 0,
        "tle_line1": "1 54026U 22128A   25352.32201481  .00000104  00000+0  00000+0 0  9993",
        "tle_line2": "2 54026   0.0131  16.7549 0001565 249.4487 163.9157  1.00270561 11928"
      },
      "geometry": {
        "type": "Point",
        "coordinates": [
          162.37129628021955,
          0.013573240324461716
        ]
      }
    },
    {
      "type": "Feature",
      "properties": {
        "norad_id": 54027,
        "name": "GALAXY 34 (G-34)",
        "group": "intelsat",
        "lat": 0.0020149466585600785,
        "lon": 166.44857315963876,
        "alt_km": 35786.69793094285,
        "timestamp": "2025-12-18T13:51:49.328829+00:00",
        "meta_object_name": "GALAXY 34 (G-34)",
        "meta_object_id": "2022-128B",
        "meta_epoch": "2025-12-18T02:27:22.645152",
        "meta_mean_motion": 1.00271871,
        "meta_eccentricity": 0.00015543,
        "meta_inclination": 0.0227,
        "meta_ra_of_asc_node": 349.9987,
        "meta_arg_of_pericenter": 272.3331,
        "meta_mean_anomaly": 92.5663,
        "meta_ephemeris_type": 0,
        "meta_classification_type": "U",
        "meta_norad_cat_id": 54027,
        "meta_element_set_no": 999,
        "meta_rev_at_epoch": 1209,
        "meta_bstar": 0,
        "meta_mean_motion_dot": 0,
        "meta_mean_motion_ddot": 0,
        "tle_line1": "1 54027U 22128B   25352.10234543  .00000000  00000+0  00000+0 0  9990",
        "tle_line2": "2 54027   0.0227 349.9987 0001554 272.3331  92.5663  1.00271871 12096"
      },
      "geometry": {
        "type": "Point",
        "coordinates": [
          166.44857315963876,
          0.0020149466585600785
        ]
      }
    },
    {
      "type": "Feature",
      "properties": {
        "norad_id": 54243,
        "name": "GALAXY 31 (G-31)",
        "group": "intelsat",
        "lat": 0.014656309278571969,
        "lon": 174.38180518209842,
        "alt_km": 35787.687882323444,
        "timestamp": "2025-12-18T13:51:49.328842+00:00",
        "meta_object_name": "GALAXY 31 (G-31)",
        "meta_object_id": "2022-153A",
        "meta_epoch": "2025-12-17T23:01:24.835872",
        "meta_mean_motion": 1.00272955,
        "meta_eccentricity": 0.00014763,
        "meta_inclination": 0.0201,
        "meta_ra_of_asc_node": 61.1957,
        "meta_arg_of_pericenter": 221.7333,
        "meta_mean_anomaly": 28.2661,
        "meta_ephemeris_type": 0,
        "meta_classification_type": "U",
        "meta_norad_cat_id": 54243,
        "meta_element_set_no": 999,
        "meta_rev_at_epoch": 531,
        "meta_bstar": 0,
        "meta_mean_motion_dot": 3.8e-07,
        "meta_mean_motion_ddot": 0,
        "tle_line1": "1 54243U 22153A   25351.95931523  .00000038  00000+0  00000+0 0  9993",
        "tle_line2": "2 54243   0.0201  61.1957 0001476 221.7333  28.2661  1.00272955  5316"
      },
      "geometry": {
        "type": "Point",
        "coordinates": [
          174.38180518209842,
          0.014656309278571969
        ]
      }
    },
    {
      "type": "Feature",
      "properties": {
        "norad_id": 54244,
        "name": "GALAXY 32 (G-32)",
        "group": "intelsat",
        "lat": -0.024196185761097087,
        "lon": -155.6466898288896,
        "alt_km": 35790.64874809978,
        "timestamp": "2025-12-18T13:51:49.328853+00:00",
        "meta_object_name": "GALAXY 32 (G-32)",
        "meta_object_id": "2022-153B",
        "meta_epoch": "2025-12-17T04:19:59.261664",
        "meta_mean_motion": 1.00271531,
        "meta_eccentricity": 0.000259,
        "meta_inclination": 0.0104,
        "meta_ra_of_asc_node": 339.7375,
        "meta_arg_of_pericenter": 338.8221,
        "meta_mean_anomaly": 101.4983,
        "meta_ephemeris_type": 0,
        "meta_classification_type": "U",
        "meta_norad_cat_id": 54244,
        "meta_element_set_no": 999,
        "meta_rev_at_epoch": 1131,
        "meta_bstar": 0,
        "meta_mean_motion_dot": -1.5e-06,
        "meta_mean_motion_ddot": 0,
        "tle_line1": "1 54244U 22153B   25351.18054701 -.00000150  00000+0  00000+0 0  9999",
        "tle_line2": "2 54244   0.0104 339.7375 0002590 338.8221 101.4983  1.00271531 11318"
      },
      "geometry": {
        "type": "Point",
        "coordinates": [
          -155.6466898288896,
          -0.024196185761097087
        ]
      }
    }
  ]
}